[{"OBJECT_NAME":"SITRO-AIS 28","OBJECT_ID":"2024-039U","EPOCH":"2026-03-09T22:53:08.846304","MEAN_MOTION":14.92876764,"ECCENTRICITY":0.01445021,"INCLINATION":95.3938,"RA_OF_ASC_NODE":167.1162,"ARG_OF_PERICENTER":314.581,"MEAN_ANOMALY":44.3693,"EPHEMERIS_TYPE":0,"CLASSIFICATION_TYPE":"U","NORAD_CAT_ID":59071,"ELEMENT_SET_NO":999,"REV_AT_EPOCH":10993,"BSTAR":0.0004111707,"MEAN_MOTION_DOT":5.19e-5,"MEAN_MOTION_DDOT":0},{"OBJECT_NAME":"CZ-4B DEB","OBJECT_ID":"1999-057K","EPOCH":"2026-03-09T22:17:40.122240","MEAN_MOTION":14.67105453,"ECCENTRICITY":0.00534762,"INCLINATION":98.6682,"RA_OF_ASC_NODE":75.7364,"ARG_OF_PERICENTER":216.1883,"MEAN_ANOMALY":143.5697,"EPHEMERIS_TYPE":0,"CLASSIFICATION_TYPE":"U","NORAD_CAT_ID":26123,"ELEMENT_SET_NO":999,"REV_AT_EPOCH":37595,"BSTAR":0.00051285049,"MEAN_MOTION_DOT":2.886e-5,"MEAN_MOTION_DDOT":0}]
